{"type": "FeatureCollection", "features": [ {"type": "Feature", "properties": {"norad_id": 38068, "name": "COSMOS 2251 DEB", "group": "cosmos-2251-debris", "lat": 61.94900179449913, "lon": 94.80802738791651, "alt_km": 761.4753391497479, "timestamp": "2025-12-13T05:42:57.970363+00:00", "meta": {"OBJECT_NAME": "COSMOS 2251 DEB", "OBJECT_ID": "1993-036BSA", "EPOCH": "2025-11-26T00:12:22.263264", "MEAN_MOTION": 14.35960004, "ECCENTRICITY": 0.00240903, "INCLINATION": 74.0219, "RA_OF_ASC_NODE": 338.9788, "ARG_OF_PERICENTER": 72.1007, "MEAN_ANOMALY": 288.2769, "EPHEMERIS_TYPE": 0, "CLASSIFICATION_TYPE": "U", "NORAD_CAT_ID": 38068, "ELEMENT_SET_NO": 999, "REV_AT_EPOCH": 66406, "BSTAR": 0.00028750999, "MEAN_MOTION_DOT": 8.11e-06, "MEAN_MOTION_DDOT": 0}, "tle": {"line1": "1 38068U 93036BSA 25330.00859101  .00000811  00000+0  28751-3 0  9998", "line2": "2 38068  74.0219 338.9788 0024090  72.1007 288.2769 14.35960004664064"}}, "geometry": {"type": "Point", "coordinates": [94.80802738791651, 61.94900179449913]}}, {"type": "Feature", "properties": {"norad_id": 38197, "name": "COSMOS 2251 DEB", "group": "cosmos-2251-debris", "lat": 10.192107579647004, "lon": 173.10346417134477, "alt_km": 609.6204986911198, "timestamp": "2025-12-13T05:42:57.970373+00:00", "meta": {"OBJECT_NAME": "COSMOS 2251 DEB", "OBJECT_ID": "1993-036BSM", "EPOCH": "2025-12-11T07:19:51.756096", "MEAN_MOTION": 14.73906007, "ECCENTRICITY": 0.0126564, "INCLINATION": 73.9383, "RA_OF_ASC_NODE": 359.8657, "ARG_OF_PERICENTER": 237.7446, "MEAN_ANOMALY": 121.1412, "EPHEMERIS_TYPE": 0, "CLASSIFICATION_TYPE": "U", "NORAD_CAT_ID": 38197, "ELEMENT_SET_NO": 999, "REV_AT_EPOCH": 85734, "BSTAR": 0.0083948544, "MEAN_MOTION_DOT": 0.00063118, "MEAN_MOTION_DDOT": 0}, "tle": {"line1": "1 38197U 93036BSM 25345.30546014  .00063118  00000+0  83949-2 0  9994", "line2": "2 38197  73.9383 359.8657 0126564 237.7446 121.1412 14.73906007857349"}}, "geometry": {"type": "Point", "coordinates": [173.10346417134477, 10.192107579647004]}}, {"type": "Feature", "properties": {"norad_id": 38199, "name": "COSMOS 2251 DEB", "group": "cosmos-2251-debris", "lat": 50.048842561257985, "lon": -138.71935288023028, "alt_km": 1215.9990754365926, "timestamp": "2025-12-13T05:42:57.970394+00:00", "meta": {"OBJECT_NAME": "COSMOS 2251 DEB", "OBJECT_ID": "1993-036BSP", "EPOCH": "2025-12-09T13:08:57.601824", "MEAN_MOTION": 13.64788419, "ECCENTRICITY": 0.0369499, "INCLINATION": 73.956, "RA_OF_ASC_NODE": 67.4327, "ARG_OF_PERICENTER": 354.5631, "MEAN_ANOMALY": 5.1515, "EPHEMERIS_TYPE": 0, "CLASSIFICATION_TYPE": "U", "NORAD_CAT_ID": 38199, "ELEMENT_SET_NO": 999, "REV_AT_EPOCH": 60978, "BSTAR": 0.00073909, "MEAN_MOTION_DOT": 9.26e-06, "MEAN_MOTION_DDOT": 0}, "tle": {"line1": "1 38199U 93036BSP 25343.54788891  .00000926  00000+0  73909-3 0  9995", "line2": "2 38199  73.9560  67.4327 0369499 354.5631   5.1515 13.64788419609786"}}, "geometry": {"type": "Point", "coordinates": [-138.71935288023028, 50.048842561257985]}}, {"type": "Feature", "properties": {"norad_id": 38208, "name": "COSMOS 2251 DEB", "group": "cosmos-2251-debris", "lat": 40.87704247748303, "lon": -116.45023961047586, "alt_km": 611.8036929788377, "timestamp": "2025-12-13T05:42:57.970406+00:00", "meta": {"OBJECT_NAME": "COSMOS 2251 DEB", "OBJECT_ID": "1993-036BSY", "EPOCH": "2025-12-09T13:47:05.669952", "MEAN_MOTION": 14.8367688, "ECCENTRICITY": 0.0002644, "INCLINATION": 74.0057, "RA_OF_ASC_NODE": 85.1942, "ARG_OF_PERICENTER": 169.4562, "MEAN_ANOMALY": 205.1363, "EPHEMERIS_TYPE": 0, "CLASSIFICATION_TYPE": "U", "NORAD_CAT_ID": 38208, "ELEMENT_SET_NO": 999, "REV_AT_EPOCH": 71112, "BSTAR": 0.003526, "MEAN_MOTION_DOT": 0.00029227, "MEAN_MOTION_DDOT": 0}, "tle": {"line1": "1 38208U 93036BSY 25343.57437118  .00029227  00000+0  35260-2 0  9994", "line2": "2 38208  74.0057  85.1942 0002644 169.4562 205.1363 14.83676880711127"}}, "geometry": {"type": "Point", "coordinates": [-116.45023961047586, 40.87704247748303]}}, {"type": "Feature", "properties": {"norad_id": 38212, "name": "COSMOS 2251 DEB", "group": "cosmos-2251-debris", "lat": 68.69415994556233, "lon": 122.78213863998297, "alt_km": 603.5157403311514, "timestamp": "2025-12-13T05:42:57.970417+00:00", "meta": {"OBJECT_NAME": "COSMOS 2251 DEB", "OBJECT_ID": "1993-036BTC", "EPOCH": "2025-12-08T13:15:26.464032", "MEAN_MOTION": 14.77639869, "ECCENTRICITY": 0.0092747, "INCLINATION": 74.0522, "RA_OF_ASC_NODE": 84.8103, "ARG_OF_PERICENTER": 153.0073, "MEAN_ANOMALY": 207.5971, "EPHEMERIS_TYPE": 0, "CLASSIFICATION_TYPE": "U", "NORAD_CAT_ID": 38212, "ELEMENT_SET_NO": 999, "REV_AT_EPOCH": 81248, "BSTAR": 0.00080388, "MEAN_MOTION_DOT": 6.149e-05, "MEAN_MOTION_DDOT": 0}, "tle": {"line1": "1 38212U 93036BTC 25342.55238963  .00006149  00000+0  80388-3 0  9993", "line2": "2 38212  74.0522  84.8103 0092747 153.0073 207.5971 14.77639869812484"}}, "geometry": {"type": "Point", "coordinates": [122.78213863998297, 68.69415994556233]}}, {"type": "Feature", "properties": {"norad_id": 38220, "name": "COSMOS 2251 DEB", "group": "cosmos-2251-debris", "lat": -66.68683159384838, "lon": -71.00853540147577, "alt_km": 598.3737590006576, "timestamp": "2025-12-13T05:42:57.970428+00:00", "meta": {"OBJECT_NAME": "COSMOS 2251 DEB", "OBJECT_ID": "1993-036BTL", "EPOCH": "2025-12-11T22:01:48.758016", "MEAN_MOTION": 14.92850575, "ECCENTRICITY": 0.0004483, "INCLINATION": 74.014, "RA_OF_ASC_NODE": 69.9473, "ARG_OF_PERICENTER": 50.1596, "MEAN_ANOMALY": 309.9981, "EPHEMERIS_TYPE": 0, "CLASSIFICATION_TYPE": "U", "NORAD_CAT_ID": 38220, "ELEMENT_SET_NO": 999, "REV_AT_EPOCH": 71358, "BSTAR": 0.0045219, "MEAN_MOTION_DOT": 0.00047133, "MEAN_MOTION_DDOT": 0}, "tle": {"line1": "1 38220U 93036BTL 25345.91792544  .00047133  00000+0  45219-2 0  9996", "line2": "2 38220  74.0140  69.9473 0004483  50.1596 309.9981 14.92850575713585"}}, "geometry": {"type": "Point", "coordinates": [-71.00853540147577, -66.68683159384838]}}, {"type": "Feature", "properties": {"norad_id": 38479, "name": "COSMOS 2251 DEB", "group": "cosmos-2251-debris", "lat": -68.95895991386709, "lon": 135.15772391012948, "alt_km": 711.5063182345375, "timestamp": "2025-12-13T05:42:57.970438+00:00", "meta": {"OBJECT_NAME": "COSMOS 2251 DEB", "OBJECT_ID": "1993-036BTP", "EPOCH": "2025-12-10T06:49:46.172352", "MEAN_MOTION": 14.38253174, "ECCENTRICITY": 0.0084224, "INCLINATION": 74.007, "RA_OF_ASC_NODE": 188.8137, "ARG_OF_PERICENTER": 298.3144, "MEAN_ANOMALY": 178.6489, "EPHEMERIS_TYPE": 0, "CLASSIFICATION_TYPE": "U", "NORAD_CAT_ID": 38479, "ELEMENT_SET_NO": 999, "REV_AT_EPOCH": 64652, "BSTAR": 0.0026738, "MEAN_MOTION_DOT": 8.453e-05, "MEAN_MOTION_DDOT": 0}, "tle": {"line1": "1 38479U 93036BTP 25344.28456218  .00008453  00000+0  26738-2 0  9993", "line2": "2 38479  74.0070 188.8137 0084224 298.3144 178.6489 14.38253174646522"}}, "geometry": {"type": "Point", "coordinates": [135.15772391012948, -68.95895991386709]}}, {"type": "Feature", "properties": {"norad_id": 38481, "name": "COSMOS 2251 DEB", "group": "cosmos-2251-debris", "lat": 63.84284240069768, "lon": 150.76723808436802, "alt_km": 1069.1854489706984, "timestamp": "2025-12-13T05:42:57.970449+00:00", "meta": {"OBJECT_NAME": "COSMOS 2251 DEB", "OBJECT_ID": "1993-036BTR", "EPOCH": "2025-12-11T08:25:34.899168", "MEAN_MOTION": 13.94814903, "ECCENTRICITY": 0.02344672, "INCLINATION": 73.9331, "RA_OF_ASC_NODE": 9.956, "ARG_OF_PERICENTER": 310.478, "MEAN_ANOMALY": 47.6118, "EPHEMERIS_TYPE": 0, "CLASSIFICATION_TYPE": "U", "NORAD_CAT_ID": 38481, "ELEMENT_SET_NO": 999, "REV_AT_EPOCH": 59041, "BSTAR": 0.0026201501, "MEAN_MOTION_DOT": 4.395e-05, "MEAN_MOTION_DDOT": 0}, "tle": {"line1": "1 38481U 93036BTR 25345.35109837  .00004395  00000+0  26202-2 0  9994", "line2": "2 38481  73.9331   9.9560 0234467 310.4780  47.6118 13.94814903590418"}}, "geometry": {"type": "Point", "coordinates": [150.76723808436802, 63.84284240069768]}}, {"type": "Feature", "properties": {"norad_id": 38483, "name": "COSMOS 2251 DEB", "group": "cosmos-2251-debris", "lat": -73.76066753460493, "lon": -64.63362091651909, "alt_km": 875.9242998001691, "timestamp": "2025-12-13T05:42:57.970459+00:00", "meta": {"OBJECT_NAME": "COSMOS 2251 DEB", "OBJECT_ID": "1993-036BTT", "EPOCH": "2025-12-09T19:47:02.543136", "MEAN_MOTION": 14.28773008, "ECCENTRICITY": 0.01104951, "INCLINATION": 74.2621, "RA_OF_ASC_NODE": 16.9647, "ARG_OF_PERICENTER": 123.4818, "MEAN_ANOMALY": 237.6953, "EPHEMERIS_TYPE": 0, "CLASSIFICATION_TYPE": "U", "NORAD_CAT_ID": 38483, "ELEMENT_SET_NO": 999, "REV_AT_EPOCH": 63436, "BSTAR": 0.0013200119, "MEAN_MOTION_DOT": 3.528e-05, "MEAN_MOTION_DDOT": 0}, "tle": {"line1": "1 38483U 93036BTT 25343.82433499  .00003528  00000+0  13200-2 0  9991", "line2": "2 38483  74.2621  16.9647 0110495 123.4818 237.6953 14.28773008634367"}}, "geometry": {"type": "Point", "coordinates": [-64.63362091651909, -73.76066753460493]}}, {"type": "Feature", "properties": {"norad_id": 38486, "name": "COSMOS 2251 DEB", "group": "cosmos-2251-debris", "lat": -24.932942897287166, "lon": -163.81403143195402, "alt_km": 635.2005548998368, "timestamp": "2025-12-13T05:42:57.970470+00:00", "meta": {"OBJECT_NAME": "COSMOS 2251 DEB", "OBJECT_ID": "1993-036BTW", "EPOCH": "2025-12-11T09:00:08.342784", "MEAN_MOTION": 14.73192637, "ECCENTRICITY": 0.00301862, "INCLINATION": 73.9417, "RA_OF_ASC_NODE": 207.5314, "ARG_OF_PERICENTER": 352.193, "MEAN_ANOMALY": 184.8713, "EPHEMERIS_TYPE": 0, "CLASSIFICATION_TYPE": "U", "NORAD_CAT_ID": 38486, "ELEMENT_SET_NO": 999, "REV_AT_EPOCH": 75414, "BSTAR": 0.0047751445, "MEAN_MOTION_DOT": 0.00031144, "MEAN_MOTION_DDOT": 0}, "tle": {"line1": "1 38486U 93036BTW 25345.37509656  .00031144  00000+0  47751-2 0  9998", "line2": "2 38486  73.9417 207.5314 0030186 352.1930 184.8713 14.73192637754141"}}, "geometry": {"type": "Point", "coordinates": [-163.81403143195402, -24.932942897287166]}}]}